*******************************************************************************
Ephemeris / WWW_USER Mon Mar 10 08:44:23 2025 Pasadena, USA      / Horizons    
*******************************************************************************
Target body name: (2018 PL28)                     {source: JPL#6}
Center body name: Earth (399)                     {source: DE441}
Center-site name: Mauna Kea
*******************************************************************************
Start time      : A.D. 2018-Nov-15 03:52:00.0000 UT      
Stop  time      : A.D. 2018-Nov-15 16:20:00.0000 UT      
Step-size       : 1 minutes
*******************************************************************************
Target pole/equ : undefined
Target radii    : undefined                                                    
Center geodetic : 204.5278, 19.8260847, 4.21024   {E-lon(deg),Lat(deg),Alt(km)}
Center cylindric: 204.5278, 6006.35451, 2151.0229 {E-lon(deg),Dxy(km),Dz(km)}
Center pole/equ : ITRF93                          {East-longitude positive}
Center radii    : 6378.137, 6378.137, 6356.752 km {Equator_a, b, pole_c}       
Target primary  : Sun
Vis. interferer : MOON (R_eq= 1737.400) km        {source: DE441}
Rel. light bend : Sun                             {source: DE441}
Rel. lght bnd GM: 1.3271E+11 km^3/s^2                                          
Small-body perts: Yes                             {source: SB441-N16}
Atmos refraction: NO (AIRLESS)
RA format       : HMS
Time format     : CAL 
Calendar mode   : Mixed Julian/Gregorian
RTS-only print  : NO       
EOP file        : eop.250307.p250603                                           
EOP coverage    : DATA-BASED 1962-JAN-20 TO 2025-MAR-07. PREDICTS-> 2025-JUN-02
Units conversion: 1 au= 149597870.700 km, c= 299792.458 km/s, 1 day= 86400.0 s 
Table cut-offs 1: Elevation (-90.0deg=NO ),Airmass (>38.000=NO), Daylight (YES)
Table cut-offs 2: Solar elongation (  0.0,180.0=NO ),Local Hour Angle( 0.0=NO )
Table cut-offs 3: RA/DEC angular rate (     0.0=NO )                           
*******************************************************************************
Initial IAU76/J2000 heliocentric ecliptic osculating elements (au, days, deg.):
  EPOCH=  2457854.5 ! 2017-Apr-11.00 (TDB)         Residual RMS= .19092        
   EC= .8623380004677549   QR= 2.686075926237564   TP= 2457951.5509793968      
   OM= 350.7805373480467   W=  275.0956674869335   IN= 74.19591911353062       
  Equivalent ICRF heliocentric cartesian coordinates (au, au/d):
   X=-1.230595634603956E+00  Y= 5.216934222523280E-01  Z=-2.512561684350396E+00
  VX= 1.337943797263742E-02 VY=-1.672601025687851E-03 VZ=-3.313586071138778E-03
Asteroid physical parameters (km, seconds, rotational period in hours):        
   GM= n.a.                RAD= n.a.               ROTPER= n.a.                
   H= 14.87                G= .150                 B-V= n.a.                   
                           ALBEDO= n.a.            STYP= n.a.                  
*******************************************************************************
 Date__(UT)__HR:MN     R.A._________(ICRF)_________DEC
******************************************************
$$SOE
 2018-Nov-15 12:04     22 43 05.964228 -01 00 01.93230
 2018-Nov-15 12:05     22 43 05.955741 -01 00 01.80781
 2018-Nov-15 12:06     22 43 05.947256 -01 00 01.68333
 2018-Nov-15 12:07     22 43 05.938774 -01 00 01.55884
 2018-Nov-15 12:08     22 43 05.930295 -01 00 01.43435
 2018-Nov-15 12:09     22 43 05.921818 -01 00 01.30986
 2018-Nov-15 12:10     22 43 05.913344 -01 00 01.18537
 2018-Nov-15 12:11     22 43 05.904873 -01 00 01.06088
 2018-Nov-15 12:12     22 43 05.896404 -01 00 00.93639
 2018-Nov-15 12:13     22 43 05.887938 -01 00 00.81190
 2018-Nov-15 12:14     22 43 05.879475 -01 00 00.68740
 2018-Nov-15 12:15     22 43 05.871014 -01 00 00.56291
 2018-Nov-15 12:16     22 43 05.862556 -01 00 00.43841
 2018-Nov-15 12:17     22 43 05.854101 -01 00 00.31391
 2018-Nov-15 12:18     22 43 05.845648 -01 00 00.18942
 2018-Nov-15 12:19     22 43 05.837198 -01 00 00.06492
 2018-Nov-15 12:20     22 43 05.828750 -00 59 59.94041
 2018-Nov-15 12:21     22 43 05.820305 -00 59 59.81591
 2018-Nov-15 12:22     22 43 05.811863 -00 59 59.69141
 2018-Nov-15 12:23     22 43 05.803423 -00 59 59.56691
 2018-Nov-15 12:24     22 43 05.794986 -00 59 59.44240
 2018-Nov-15 12:25     22 43 05.786552 -00 59 59.31789
 2018-Nov-15 12:26     22 43 05.778120 -00 59 59.19339
 2018-Nov-15 12:27     22 43 05.769691 -00 59 59.06888
 2018-Nov-15 12:28     22 43 05.761264 -00 59 58.94437
 2018-Nov-15 12:29     22 43 05.752840 -00 59 58.81986
 2018-Nov-15 12:30     22 43 05.744419 -00 59 58.69535
 2018-Nov-15 12:31     22 43 05.736000 -00 59 58.57083
 2018-Nov-15 12:32     22 43 05.727584 -00 59 58.44632
 2018-Nov-15 12:33     22 43 05.719171 -00 59 58.32181
 2018-Nov-15 12:34     22 43 05.710760 -00 59 58.19729
 2018-Nov-15 12:35     22 43 05.702352 -00 59 58.07277
 2018-Nov-15 12:36     22 43 05.693946 -00 59 57.94826
 2018-Nov-15 12:37     22 43 05.685543 -00 59 57.82374
 2018-Nov-15 12:38     22 43 05.677142 -00 59 57.69922
 2018-Nov-15 12:39     22 43 05.668744 -00 59 57.57470
 2018-Nov-15 12:40     22 43 05.660349 -00 59 57.45017
 2018-Nov-15 12:41     22 43 05.651956 -00 59 57.32565
 2018-Nov-15 12:42     22 43 05.643566 -00 59 57.20113
 2018-Nov-15 12:43     22 43 05.635178 -00 59 57.07660
 2018-Nov-15 12:44     22 43 05.626793 -00 59 56.95207
 2018-Nov-15 12:45     22 43 05.618411 -00 59 56.82755
 2018-Nov-15 12:46     22 43 05.610031 -00 59 56.70302
 2018-Nov-15 12:47     22 43 05.601653 -00 59 56.57849
 2018-Nov-15 12:48     22 43 05.593278 -00 59 56.45396
 2018-Nov-15 12:49     22 43 05.584906 -00 59 56.32943
 2018-Nov-15 12:50     22 43 05.576536 -00 59 56.20490
 2018-Nov-15 12:51     22 43 05.568169 -00 59 56.08036
 2018-Nov-15 12:52     22 43 05.559805 -00 59 55.95583
 2018-Nov-15 12:53     22 43 05.551442 -00 59 55.83129
 2018-Nov-15 12:54     22 43 05.543083 -00 59 55.70676
 2018-Nov-15 12:55     22 43 05.534726 -00 59 55.58222
 2018-Nov-15 12:56     22 43 05.526371 -00 59 55.45768
 2018-Nov-15 12:57     22 43 05.518019 -00 59 55.33314
 2018-Nov-15 12:58     22 43 05.509670 -00 59 55.20860
 2018-Nov-15 12:59     22 43 05.501323 -00 59 55.08406
 2018-Nov-15 13:00     22 43 05.492979 -00 59 54.95952
 2018-Nov-15 13:01     22 43 05.484637 -00 59 54.83497
 2018-Nov-15 13:02     22 43 05.476297 -00 59 54.71043
 2018-Nov-15 13:03     22 43 05.467960 -00 59 54.58588
 2018-Nov-15 13:04     22 43 05.459626 -00 59 54.46134
 2018-Nov-15 13:05     22 43 05.451294 -00 59 54.33679
 2018-Nov-15 13:06     22 43 05.442965 -00 59 54.21224
 2018-Nov-15 13:07     22 43 05.434638 -00 59 54.08769
 2018-Nov-15 13:08     22 43 05.426313 -00 59 53.96314
 2018-Nov-15 13:09     22 43 05.417991 -00 59 53.83859
 2018-Nov-15 13:10     22 43 05.409672 -00 59 53.71404
 2018-Nov-15 13:11     22 43 05.401355 -00 59 53.58948
 2018-Nov-15 13:12     22 43 05.393040 -00 59 53.46493
 2018-Nov-15 13:13     22 43 05.384728 -00 59 53.34037
 2018-Nov-15 13:14     22 43 05.376418 -00 59 53.21582
 2018-Nov-15 13:15     22 43 05.368111 -00 59 53.09126
 2018-Nov-15 13:16     22 43 05.359806 -00 59 52.96670
 2018-Nov-15 13:17     22 43 05.351504 -00 59 52.84214
 2018-Nov-15 13:18     22 43 05.343204 -00 59 52.71758
 2018-Nov-15 13:19     22 43 05.334906 -00 59 52.59302
 2018-Nov-15 13:20     22 43 05.326611 -00 59 52.46846
 2018-Nov-15 13:21     22 43 05.318319 -00 59 52.34390
 2018-Nov-15 13:22     22 43 05.310029 -00 59 52.21933
 2018-Nov-15 13:23     22 43 05.301741 -00 59 52.09477
 2018-Nov-15 13:24     22 43 05.293455 -00 59 51.97020
 2018-Nov-15 13:25     22 43 05.285172 -00 59 51.84564
 2018-Nov-15 13:26     22 43 05.276892 -00 59 51.72107
 2018-Nov-15 13:27     22 43 05.268614 -00 59 51.59650
 2018-Nov-15 13:28     22 43 05.260338 -00 59 51.47193
 2018-Nov-15 13:29     22 43 05.252065 -00 59 51.34736
 2018-Nov-15 13:30     22 43 05.243794 -00 59 51.22279
 2018-Nov-15 13:31     22 43 05.235525 -00 59 51.09822
 2018-Nov-15 13:32     22 43 05.227259 -00 59 50.97364
 2018-Nov-15 13:33     22 43 05.218995 -00 59 50.84907
 2018-Nov-15 13:34     22 43 05.210733 -00 59 50.72449
 2018-Nov-15 13:35     22 43 05.202474 -00 59 50.59992
 2018-Nov-15 13:36     22 43 05.194217 -00 59 50.47534
 2018-Nov-15 13:37     22 43 05.185963 -00 59 50.35076
 2018-Nov-15 13:38     22 43 05.177710 -00 59 50.22618
 2018-Nov-15 13:39     22 43 05.169461 -00 59 50.10160
 2018-Nov-15 13:40     22 43 05.161213 -00 59 49.97702
 2018-Nov-15 13:41     22 43 05.152968 -00 59 49.85244
 2018-Nov-15 13:42     22 43 05.144725 -00 59 49.72786
 2018-Nov-15 13:43     22 43 05.136485 -00 59 49.60327
 2018-Nov-15 13:44     22 43 05.128246 -00 59 49.47869
 2018-Nov-15 13:45     22 43 05.120010 -00 59 49.35410
 2018-Nov-15 13:46     22 43 05.111777 -00 59 49.22952
 2018-Nov-15 13:47     22 43 05.103545 -00 59 49.10493
 2018-Nov-15 13:48     22 43 05.095316 -00 59 48.98034
 2018-Nov-15 13:49     22 43 05.087089 -00 59 48.85575
 2018-Nov-15 13:50     22 43 05.078865 -00 59 48.73116
 2018-Nov-15 13:51     22 43 05.070643 -00 59 48.60657
 2018-Nov-15 13:52     22 43 05.062423 -00 59 48.48198
 2018-Nov-15 13:53     22 43 05.054205 -00 59 48.35739
 2018-Nov-15 13:54     22 43 05.045989 -00 59 48.23280
 2018-Nov-15 13:55     22 43 05.037776 -00 59 48.10820
 2018-Nov-15 13:56     22 43 05.029565 -00 59 47.98361
 2018-Nov-15 13:57     22 43 05.021356 -00 59 47.85901
 2018-Nov-15 13:58     22 43 05.013150 -00 59 47.73441
 2018-Nov-15 13:59     22 43 05.004945 -00 59 47.60981
 2018-Nov-15 14:00     22 43 04.996743 -00 59 47.48522
 2018-Nov-15 14:01     22 43 04.988543 -00 59 47.36062
 2018-Nov-15 14:02     22 43 04.980346 -00 59 47.23602
 2018-Nov-15 14:03     22 43 04.972150 -00 59 47.11141
 2018-Nov-15 14:04     22 43 04.963957 -00 59 46.98681
 2018-Nov-15 14:05     22 43 04.955766 -00 59 46.86221
 2018-Nov-15 14:06     22 43 04.947577 -00 59 46.73760
